X,Y,OBJECTID,GlobalID,EditDate,county,address,city,zipcode,startdate,hoursofoperation,notes,operator,POC,Email_Address,sitename,website,daysofoperation,publicphone,publicnotes,SiteUtilization,TurnAroundTime
-13560167.8668,4825089.8694,3,{0A3C99F8-4E79-41EE-A307-94D2B22CA10F},2020/07/10 16:24:01,Butte,2357 Fair St,Chico,95928,2020/05/04 06:59:59,0700-1900,,OPTUMServe,Kaylene Robbins,,OPTUMServe 1,https://lhi.care/covidtesting,"Mon, Tues, Wed, Thurs, Fri",(888) 634-1123,,92,164
-13355138.8193,4711181.66,7,{FD62BAF9-D122-43E2-8208-5512D7EE0A11},2020/07/10 16:24:01,El Dorado,1 College Drive,South Lake Tahoe,96150,2020/05/05 06:59:59,0700-1900,,OPTUMServe,Todd Crawford,,OPTUMServe 1,https://lhi.care/covidtesting,"Tues, Wed, Thurs, Fri, Sat",(888) 634-1123,,104,153
-13817747.5267,4980025.8723,11,{A2C39F85-732B-4FF8-AE21-7414CF4DFF97},2020/07/10 16:24:02,Humboldt,3750 Harris St,Eureka,95503,2020/04/27 06:59:59,0700-1900,Site is Mobile on 6/29 & 6/30,OPTUMServe,Natalie Chapman,,OPTUMServe 1,https://lhi.care/covidtesting,"Mon, Tues, Wed, Thurs, Fri",(888) 634-1123,,69,174
-13321455.7516,4346302.2322,15,{E60D0AF1-4305-4E47-A814-101241C921EC},2020/07/10 16:24:04,Kings,1520 Kings County Dr.,Hanford,93230,2020/05/04 06:59:59,0700-1900,,OPTUMServe,Everardo Legaspi,,OPTUMServe 1,https://lhi.care/covidtesting,"Mon, Tues, Wed, Thurs, Fri",(888) 634-1123,,87,89
-13617070.291,4957865.588,62,{151D4F28-4774-4C90-A6C9-ACD82921A5D3},2020/07/10 16:24:04,Shasta,11555 Old Oregon Trail,Redding,96003,2020/04/30 06:59:59,0700-1900,,OPTUMServe,Cory Brown,,OPTUMServe 1,https://lhi.care/covidtesting,"Mon, Tues, Wed, Thurs, Fri",(888) 634-1123,,93,163
-13291001.2534,4375825.9198,72,{305819E9-2EB6-4CB9-B704-0A940690320D},2020/07/10 16:24:04,Tulare,249 S. Alta Ave,Dinuba,93618,2020/05/04 06:59:59,0700-1900,,OPTUMServe,Jerry Carter,,OPTUMServe 1,https://lhi.care/covidtesting,"Mon, Tues, Wed, Thurs, Fri",(888) 634-1123,,87,86
-13564676.253,4481549.7009,78,{D1B8B719-FE3F-4045-BAAE-86BFEB6633AF},2020/07/10 16:24:05,Santa Clara,344 Tully Rd,San Jose,95111,2020/03/16 05:00:00,9AM - 3PM,"Volunteers & deliveries enter at 2542 Monterey Rd, San Jose, CA [Gate D]",Verily,Walter Lin,walter.lin@sanjoseca.gov,Santa Clara County Fairgrounds,https://www.projectbaseline.com/study/covid-19/,Mon-Fri,,,,
-13517458.9612,4663824.5098,81,{103B9923-43B3-4393-A715-47FB01B6B647},2020/07/10 16:24:06,Sacramento,1600 Exposition Blvd,Sacramento,95815,2020/03/24 14:00:00,8:30AM - 1:45PM,Staff Entrance: Gate 12 (Ethan Way & Hurley Way),Verily,Nick Mori,MoriD@SacCounty.net,"Sacramento, CA",https://www.projectbaseline.com/study/covid-19/,Mon-Fri,,,,
-13501285.2651,4563434.0338,83,{70CA5A04-3E71-478A-9815-7F4A969B5123},2020/07/10 16:24:06,San Joaquin,500 W Hospital Rd,French Camp,95231,2020/04/08 14:00:00,9AM - 5PM,,Verily,Max Vargas,Max.Vargas@stocktonca.gov,"Stockton, CA",https://www.projectbaseline.com/study/covid-19/,Mon-Sat,,,,
-13612011.1323,4621754.2474,84,{5B446F87-99D5-4C39-BAB8-EBEAD516E11B},2020/07/10 16:24:06,Napa,575 3rd St,Napa,94559,2020/04/24 14:00:00,10AM - 4PM,,Verily,Molly Rattigan,molly.rattigan@countyofnapa.org,"Napa, CA",https://www.projectbaseline.com/study/covid-19/,Mon-Sat,,,,
-13478282.2107,4538338.1328,85,{4C69ABD3-3E6C-4061-ABC8-0D2FC3488BEA},2020/07/10 16:24:06,Stanislaus,4835 Sisk Rd,Salida,95368,2020/04/20 14:00:00,9AM - 4PM,,Verily,Rayna Gomez,rgomez@schsa.org,"Salida, CA",https://www.projectbaseline.com/study/covid-19/,Mon-Fri,,,,
-13347429.6408,4505196.0192,86,{F1272408-75A9-4BA3-8397-D8CCD45F88D9},2020/07/10 16:24:07,Mariposa,5171 Silva Rd,Mariposa,95338,2020/04/30 06:59:59,0700-1900,,OPTUMServe,Claudia Radonic,,OPTUMServe 1,https://lhi.care/covidtesting,"Tues, Wed, Thurs, Fri, Sat",(888) 634-1123,,93,94
-13476512.744,4752416.4785,89,{4FF1EC79-BBAB-493B-B06D-2089B1C2E1CC},2020/07/10 16:24:07,Nevada,255 South Auburn Street,Grass Valley,95945,2020/05/05 06:59:59,0700-1900,Paul Cummings' Business Number: (530) 265-7015,OPTUMServe,"Paul Cummings, Nevada County Office of Emergency Services Program Manager",,OPTUMServe 1,https://lhi.care/covidtesting,"Tues, Wed, Thurs, Fri, Sat",(888) 634-1123,,105,170
-13158619.7062,4011465.3133,94,{BB00BBC6-4E4C-4E41-AC91-58BF024C1CEA},2020/07/10 16:24:08,Los Angeles,171 W. Bort St,Long Beach,90805,2020/04/30 06:59:59,0700-1900,,OPTUMServe,Sandy Wedgeworth,,OPTUMServe 1,https://lhi.care/covidtesting,"Mon, Tues, Wed, Thurs, Fri",(888) 634-1123,,97,107
-13407603.2802,4155792.4294,97,{5678A809-FFD9-4C3E-ADDE-C9F542FD1394},2020/07/10 16:24:09,Santa Barbara,937 S. Thornburg St,Santa Maria,93458,2020/05/05 06:59:59,0700-1900,,OPTUMServe,Nick Clay,,OPTUMServe 1,https://lhi.care/covidtesting,"Wed, Thurs, Fri, Sat, Sun",(888) 634-1123,,90,96
-13540652.1961,4742433.8943,98,{12900E1E-8E6B-419E-8A92-94A1D6421BE5},2020/07/10 16:24:09,Sutter,1425 Veterans Memorial Circle,Yuba City,95993,2020/05/04 06:59:59,0700-1900,,OPTUMServe,Ken Irwin,,OPTUMServe 1,https://lhi.care/covidtesting,"Mon, Tues, Wed, Thurs, Fri",(888) 634-1123,,86,167
-13253647.5895,4309732.2894,99,{8875D069-BAB6-43C5-A7CD-B221702EA477},2020/07/10 16:24:10,Tulare,1900 W Olive Ave,Porterville,93257,2020/05/04 06:59:59,0700-1900,test,OPTUMServe,Sandy Knott,,OPTUMServe 2,https://lhi.care/covidtesting,"Mon, Tues, Wed, Thurs, Fri",(888) 634-1123,,97,68
-13268073.3708,4054843.3517,100,{6E3A82AA-8B51-4C9C-A762-F1EF5C7964E8},2020/07/10 16:24:10,Ventura,800 Hobson Way,Oxnard,93030,2020/05/04 06:59:59,0800-2000,,OPTUMServe,Patrick Maynard,,OPTUMServe 1,https://lhi.care/covidtesting,"Mon, Tues, Wed, Thurs, Fri",(888) 634-1123,,33,83
-13150445.416,4052101.4501,104,{716623E4-AC99-4616-9CF4-910E04B05182},2020/07/10 16:24:11,Los Angeles,1595 North Lake Ave,Pasadena,91104,2020/05/04 06:59:59,0700-1900,,OPTUMServe,Sergio Bautista,,OPTUMServe 2,https://lhi.care/covidtesting,"Mon, Tues, Wed, Thurs, Fri",(888) 634-1123,,81,72
-13636792.6592,4573300.3448,105,{B9A7EFA8-FC5C-49AF-97CD-08658A5DEC68},2020/07/10 16:24:11,Marin,1177 Francisco Blvd E,San Rafael,94901,2020/05/04 06:59:59,0700-1900,,OPTUMServe,Woody Baker-Cohn,cohn@marinsheriff.org,OPTUMServe 1,https://lhi.care/covidtesting,"Tues, Wed, Thurs, Fri, Sat",(888) 634-1123,,101,170
-13500328.4281,4598764.1186,106,{C6435467-8FDA-419E-AA73-C265F037A594},2020/07/10 16:24:11,San Joaquin,201 W. Locust St,Lodi,95240,2020/05/04 06:59:59,0700-1900,,OPTUMServe,Astrida Trupovenieks,,OPTUMServe 1,https://lhi.care/covidtesting,"Mon, Tues, Wed, Thurs, Fri",(888) 634-1123,,83,160
-13427349.1594,4180553.1086,108,{F344E352-B9C1-46DF-802A-FE99DEF05603},2020/07/10 16:24:13,San Luis Obispo,933 Ramona Ave,Grover Beach,93433,2020/05/04 06:59:59,0700-1900,,OPTUMServe,Anita Konopa,,OPTUMServe 2,https://lhi.care/covidtesting,"Mon, Tues, Wed, Thurs, Fri",(888) 634-1123,,95,88
-13117958.5924,4000380.3805,111,{34E16C38-1FD3-43BD-BCF2-32A20456537E},2020/07/10 16:24:14,Orange,1215 E Chapman Ave.,Orange,92866,2020/05/07 06:59:59,0800-2000,,OPTUMServe,Jessica Hodgeson,,OPTUMServe 1,https://lhi.care/covidtesting,"Tues, Wed, Thurs, Fri, Sat.",(888) 634-1123,,91,116
-13496950.4934,4345128.741,112,{5A44D182-FA0B-4B63-9E47-166B58B49ACA},2020/07/10 16:24:15,Monterey,315 El Camino Real,Greenfield,93927,2020/05/05 06:59:59,0800-2000,,OPTUMServe,,,OPTUMServe 2,https://lhi.care/covidtesting,"Tues, Wed, Thurs, Fri, Sat",(888) 634-1123,,88,160
-13412153.7983,4479463.7842,114,{F6316928-F508-4482-948D-DE506927AAD6},2020/07/10 16:24:16,Merced,900 Martin Luther King Jr,Merced,95340,2020/04/30 06:59:59,0700-1900,,OPTUMServe,David Scheurich,david.scheurich@fire.ca.gov,OPTUMServe 1,https://lhi.care/covidtesting,"Mon, Tues, Wed, Thurs, Fri",(888) 634-1123,,95,163
-13514419.5346,4418173.6029,116,{F6148A35-C572-40F2-9EFD-4CBFC8B72799},2020/07/10 16:24:17,San Benito,649 San Benito St,Hollister,95023,2020/05/05 06:59:59,0800-2000,,OPTUMServe,Dr. May White,,OPTUMServe 1,https://lhi.care/covidtesting,"Sun, Mon, Tues, Wed, Thurs",(888) 634-1123,,91,165
-13576449.5422,4631896.2637,119,{EA5CC55A-136B-47E6-89EB-E815AF4C05E3},2020/07/10 16:24:19,Solano,1681 East Monte Vista Ave,Vacaville,95687,2020/05/04 06:59:59,0700-1900,,OPTUMServe,Denise Kirnig,,OPTUMServe 2,https://lhi.care/covidtesting,"Mon, Tues, Wed, Thurs, Fri",(888) 634-1123,,,
-13307911.1659,4398366.4772,154,{7842B5FA-B766-45D6-8A12-B835209C79FF},2020/07/10 16:24:20,Fresno,730 Recreation Avenue,Sanger,93657,2020/05/07 06:59:59,0700-1900,,OPTUMServe,Ruby Sauceda,,OPTUMServe 2,https://lhi.care/covidtesting,"Mon, Tues, Wed, Thurs, Fri",(888) 634-1123,,91,89
-13033762.4295,3847735.8724,162,{F9010D71-3213-4D99-A728-CD858980BE17},2020/07/10 16:24:25,San Diego,565 Broadway,Chula Vista,91910,2020/05/05 06:59:59,0700-1900,,OPTUMServe,Christopher Ward,,OPTUMServe 2,https://lhi.care/covidtesting,"Tues, Wed, Thurs, Fri, Sat",(888) 634-1123,,76,95
-13555573.5009,4427463.7232,166,{B4DB4E0D-8FDF-4138-BCFA-C2F0C6BDE401},2020/07/10 16:24:26,Santa Cruz,1301 Main Street,Watsonville,95076,2020/05/06 06:59:59,0700-1900,,OPTUMServe,Nick Calubaquib,,OPTUMServe 1,https://lhi.care/covidtesting,"Wed, Thurs, Fri, Sat, Sun",(888) 634-1123,,104,171
-13651618.5522,4617358.5919,168,{87FB3CCF-D787-456A-B853-A371CCA36B3F},2020/07/10 16:24:26,Sonoma,680 Sonoma Mountain Parkway,Petaluma,94954,2020/05/05 06:59:59,0700-1900,Petaluma Campus - Santa Rosa Jr College,OPTUMServe,Lisa Balente,,OPTUMServe 1,https://lhi.care/covidtesting,"Mon, Tues, Wed, Thurs, Fri",(888) 634-1123,,90,162
-13068779.6074,4027858.3079,173,{8C5911D8-9EA3-4AD6-81E8-ABD1BCDA996D},2020/07/10 16:24:28,Riverside,5293 Mission Blvd,Jurupa Valley,92509,2020/05/06 06:59:59,0700-1900,,OPTUMServe,Roger Weaver,,OPTUMServe 2,https://lhi.care/covidtesting,"Mon, Tues, Wed, Thurs, Fri",(888) 634-1123,,72,99
-12969651.9027,4022928.5445,174,{28AD4CED-F588-48DE-86A9-A4A47C0E317D},2020/07/10 16:24:28,Riverside,12-800 West Arroyo Dr,Desert Hot Springs,92240,2020/05/06 06:59:59,0700-1900,,OPTUMServe,Jim Henson,,OPTUMServe 3,https://lhi.care/covidtesting,"Tues, Wed, Thurs, Fri, Sat",(888) 634-1123,,80,89
-13022799.5557,4021697.4625,177,{33F2781E-BAC9-4B3C-843D-A4CBBE62C8DF},2020/07/10 16:24:30,Riverside,390 West Oak Valley Parkway,Beaumont,92223,2020/05/06 06:59:59,0700-1900,,OPTUMServe,Duane Burk,,OPTUMServe 6,https://lhi.care/covidtesting,"Tues, Wed, Thurs, Fri, Sat",(888) 634-1123,,91,94
-13082689.7843,4020167.2768,178,{F17B923B-AE8D-4F3C-A04F-93B12E7A598A},2020/07/10 16:24:30,Riverside,3737 Crest View Gate 3,Norco,92860,2020/05/06 06:59:59,0700-1900,Gate 3,OPTUMServe,Brian Petree,,OPTUMServe 7,https://lhi.care/covidtesting,"Mon, Tues, Wed, Thurs, Fri",(888) 634-1123,,90,98
-13612748.6115,4578346.3418,196,{2E28007E-8859-4407-B73C-DBB7DF5F534B},2020/07/10 16:24:32,Contra Costa,2935 Pinole Valley Road,Pinole,94564,2020/05/06 06:59:59,0700-1900,,OPTUMServe,Joshua Sullivan,Joshua.Sullivan@cchealth.org,OPTUMServe 2,https://lhi.care/covidtesting,"Mon, Tues, Wed, Thurs, Fri",(888) 634-1123,,92,165
-13600688.7714,4544592.4711,199,{1982FFAE-0DBE-40F7-B05E-82960588192D},2020/07/10 16:24:34,Alameda,8501 International Blvd,Oakland,94621,2020/05/16 06:59:59,1 PM - 7 PM,,Verily,Alexandria McBride,AMcBride@oaklandca.gov,"Oakland (Allen Temple), CA",https://www.projectbaseline.com/study/covid-19/,Mon - Sat,,,,
-13156760.5623,3999313.8307,201,{01C596BD-0DDE-43A6-80C9-9573E208804B},2020/07/10 16:24:34,Los Angeles,1060 Long Beach Blvd,Long Beach,90813,2020/04/27 14:00:00,8AM - 12PM,,Verily,Anissa Davis,Anissa.Davis@longbeach.gov,"Long Beach, CA",https://www.projectbaseline.com/study/covid-19/,Mon-Fri,,,,
-13167678.0019,4030340.645,202,{84083AF7-C3F0-4F98-AD6E-D82A78F61FED},2020/07/10 16:24:35,Los Angeles,3986 Hoover St,Los Angeles,90037,2020/05/04 14:00:00,9AM - 3PM,,Verily,Dr. Clay Kazan,Clayton.Kazan@fire.lacounty.gov,"Los Angeles (Exposition Park), CA",https://www.projectbaseline.com/study/covid-19/,"Thurs, Fri",,,,
-13564195.2353,4486961.0084,204,{F05B748E-7445-453D-9D26-5D5966F203DF},2020/07/10 16:24:35,Santa Clara,680 S 34th Street,San Jose,95116,2020/05/04 14:00:00,9AM - 3PM,,Verily,Walter Lin,walter.lin@sanjoseca.gov,"San Jose (PAL Stadium), CA",https://www.projectbaseline.com/study/covid-19/,Mon-Fri,,,,
-13155094.2277,4037136.3441,205,{935A754C-1DDB-46A7-B308-9D5DF40E80FD},2020/07/10 16:24:36,Los Angeles,1900 Paseo Rancho Castilla,Los Angeles,90032,2020/05/06 14:00:00,0700-1900,Biospace Building - Cal State,OPTUMServe,Lisa Chavez,,OPTUMServe 3,https://lhi.care/covidtesting,"Mon, Tues, Wed, Thurs, Fri",(888) 634-1123,,73,95
-13168375.7487,4006206.5491,206,{CA57527E-C6DC-4351-A683-3DB4FBB434C5},2020/07/10 16:24:36,Los Angeles,1000 West Carson Street - Bldg N-26,Torrance,90502,2020/05/11 06:59:59,0700-1900,Building N26 (K.I.D.S Hub Clinic),OPTUMServe,Azar Kattan,,OPTUMServe 4,https://lhi.care/covidtesting,"Mon, Tues, Wed, Thurs, Fri",(888) 634-1123,,79,89
-13173750.7015,4017592.7081,207,{1E6FB857-9EF2-436C-8C29-B9ECA1CB2863},2020/07/10 16:24:37,Los Angeles,3901 W El Segundo Blvd,Hawthorne,90250,2020/05/06 06:59:59,0700-1900,,OPTUMServe,Haidar Awad,,OPTUMServe 5,https://lhi.care/covidtesting,"Mon, Tues, Wed, Thurs, Fri",(888) 634-1123,Site closing at 12pm on July 3rd.,68,88
-13186053.1151,4030452.3738,208,{5491822A-3A70-4D2D-81BD-F7E6D414F4A3},2020/07/10 16:24:37,Los Angeles,2800 Airport Ave,Santa Monica,90405,2020/05/07 06:59:59,0700-1900,,OPTUMServe,Don Girard,,OPTUMServe 6,https://lhi.care/covidtesting,"Tues, Wed, Thurs, Fri, Sat",(888) 634-1123,,97,84
-13173049.4892,4031814.0675,209,{CA22DEBD-3F18-4760-9514-0955B96BE4F6},2020/07/10 16:24:37,Los Angeles,3606 W Exposition Blvd,Los Angeles,90016,2020/05/11 06:59:59,0700-1900,,OPTUMServe,Veronica Lewis,,OPTUMServe 7,https://lhi.care/covidtesting,"Mon, Tues, Wed, Thurs, Fri",(888) 634-1123,,66,89
-13140626.8499,4035149.0298,210,{85977133-6172-4DBA-9B35-8F916EE81389},2020/07/10 16:24:38,Los Angeles,10408 Vacco Street,South El Monte,91733,2020/05/11 06:59:59,0700-1900,,OPTUMServe,Sergio Bautista,,OPTUMServe 8,https://lhi.care/covidtesting,"Mon, Tues, Wed, Thurs, Fri",(888) 634-1123,,80,78
-13228197.0281,4192174.4983,214,{CEA3A9BD-1595-4A48-A10D-3180DD600123},2020/07/10 16:24:39,Kern,204 S Hill,Arvin,93203,2020/05/12 06:59:59,0700-1900,,OPTUMServe,Jake Cagle,,OPTUMServe 9,https://lhi.care/covidtesting,"Tues, Wed, Thurs, Fri, Sat",(888) 634-1123,,76,83
-13328877.8229,4086494.9589,218,{C84F8C87-470F-48CE-BDFB-F9E01CF1A7FA},2020/07/10 16:24:40,Santa Barbara,3400 Calle Real,Santa Barbara,93105,2020/05/07 06:59:59,0700-1900,,OPTUMServe,Nick Clay,,OPTUMServe 9,https://lhi.care/covidtesting,"Thurs, Fri, Sat, Sun, Mon",(888) 634-1123,,84,101
-13239032.9953,4053161.243,222,{C3CC043C-387F-489C-BB58-6CFBCA61630D},2020/07/10 16:24:41,Ventura,2331 Borchard Rd,Newbury Park,91320,2020/05/11 05:00:00,0700-1900,,OPTUMServe,Patrick Maynard,,OPTUMServe 9,https://lhi.care/covidtesting,"Mon, Tues, Wed, Thurs, Fri",(888) 634-1123,,83,94
-13682680.096,4728176.0718,226,{7FC020D4-E174-4B7C-BACB-F6C9818318ED},2020/07/10 16:24:42,Lake,14 5th St,Lakeport,95453,2020/05/14 06:59:59,9 AM - 1 PM,,Verily,Carolyn Halladay,Carolyn.Holladay@lakecountyca.gov,"Lakeport, CA - Rotation",https://www.projectbaseline.com/study/covid-19/,Thurs - Fri,,,,
-13367221.0488,4435548.3136,231,{61CAD685-AF52-4B4B-8913-D4BEDA12D965},2020/07/10 16:24:44,Madera,1850 West Cleveland Ave,Madera,93637,,1700-1900,Van Allen Hall,OPTUMServe,Robin Siminoff,,OPTUMServe,https://lhi.care/covidtesting,"Mon, Tues, Wed, Fri, Sat",(888) 634-1123,,93,91
-13715735.756,4745362.9973,232,{4B131C4C-94EA-489F-ABE5-01E2357C0F57},2020/07/10 16:24:45,Mendocino,1055 N State Street,Ukiah,95482,2020/05/22 06:59:59,0700-1900,Carl Purdy Hall,OPTUMServe,Darcie Antle,,OPTUMServe,https://lhi.care/covidtesting,"Tues, Wed, Thurs, Fri, Sat",(888) 634-1123,,113,166
-13631330.2099,4541008.4747,233,{EFAA9DFB-3304-42AA-8BDF-4394B77410ED},2020/07/10 16:24:46,San Francisco,180 Frida Kahlo Way,San Francisco,94112,2020/05/18 06:59:59,0700-1900,,OPTUMServe,Mike Dougherty,,OPTUMServe,https://lhi.care/covidtesting,"Mon, Tues, Wed, Thurs, Fri",(888) 634-1123,,83,165
-13562163.7351,4490038.0347,234,{90AA49A6-E067-4E7D-9396-2FC38FFD8CB3},2020/07/10 16:24:46,Santa Clara,2955 Alum Rock Avenue,San Jose,95127,2020/05/11 06:59:59,0700-1900,,OPTUMServe,Abby Almerido,,OPTUMServe,https://lhi.care/covidtesting,"Mon, Tues, Wed, Thurs, Fri",(888) 634-1123,,88,165
-13536587.0469,4444501.686,238,{8B43D67D-B667-4C75-B66E-F1E0333957C3},2020/07/10 16:24:47,Santa Clara,850 Day Rd,Gilroy,95020,2020/05/06 06:59:59,0700-1900,,OPTUMServe,Abby Almerido,,OPTUMServe,https://lhi.care/covidtesting,"Mon, Tues, Wed, Thurs, Fri",(888) 634-1123,,87,170
-13416359.407,4586454.4546,240,{BD7FA43D-DC95-431C-BB33-AF28F8681393},2020/07/10 16:24:49,Calaveras,2465 Gun Club Road,Angels Camp,95222,2020/05/27 06:59:59,0800-1700,,OPTUMServe,Christopher Edgerly,,OPTUMServe,https://lhi.care/covidtesting,"Tues, Wed, Thurs, Fri, Sat",(888) 634-1123,,81,166
-13548122.4528,4568918.1323,241,{C5FD6824-9159-4C3D-B087-7D6377FEB82D},2020/07/10 16:24:49,Contra Costa,193 Griffith Ln,Brentwood,94513,2020/05/26 06:59:59,0700-1900,,OPTUMServe,Joshua Sullivan,Joshua.Sullivan@cchealth.org,OPTUMServe,https://lhi.care/covidtesting,"Mon, Tues, Wed, Thurs, Fri",(888) 634-1123,,86,180
-13335770.7908,4407009.7492,242,{3CE216C0-C24E-45E4-8EF6-142C2EDD23A8},2020/07/10 16:24:50,Fresno,2100 N College Ave,Fresno,93704,2020/05/04 06:59:59,0700-1900,,OPTUMServe,Anton Kremer,,OPTUMServe,https://lhi.care/covidtesting,"Mon, Tues, Wed, Thurs, Fri",(888) 634-1123,,94,36
-13538988.3609,4390666.5095,243,{7BDF4EB6-6F39-4093-97B0-E98998B8CF31},2020/07/10 16:24:50,Monterey,1432 Abbott Street,Salinas,93901,2020/05/26 06:59:59,0800-2000,,OPTUMServe,Karen Smith,,OPTUMServe,https://lhi.care/covidtesting,"Tues, Wed, Thurs, Fri, Sat",(888) 634-1123,,97,169
-13033843.4793,3856893.4276,244,{FEF3F261-9567-4DFE-A3FA-F4DDEF8641D5},2020/07/10 16:24:50,San Diego,415 Euclid Ave,San Diego,92114,2020/05/19 06:59:59,0700-1900,,OPTUMServe,Angie Durdiev,,OPTUMServe,https://lhi.care/covidtesting,"Mon, Tues, Wed, Thurs, Fri",(888) 634-1123,,,
-13020223.8487,3867947.8415,245,{BAA5C813-8C2F-4769-BA8C-1AF45D56A0AF},2020/07/10 16:24:51,San Diego,200 S Magnolia Ave,El Cajon,92020,2020/05/19 06:59:59,0700-1900,,OPTUMServe,Angie Durdiev,,OPTUMServe,https://lhi.care/covidtesting,"Tues, Wed, Thurs, Fri, Sat",(888) 634-1123,,88,106
-13042324.0115,3965444.4435,246,{AF8969BB-1E44-4A73-8F1D-924FA865F6DA},2020/07/10 16:24:51,Riverside,41000 County Center Drive,Temecula,92591,2020/05/26 06:59:59,,,OPTUMServe,Hashish Winstead,,OPTUMServe,https://lhi.care/covidtesting,"Tues, Wed, Thurs, Fri, Sat",(888) 634-1123,,92,111
-13123489.9466,3994666.8158,247,{E5DB94DC-56AE-4CE4-A02B-36E71218B9C9},2020/07/10 16:24:51,Orange,1618 W 1st St,Santa Ana,92706,2020/05/12 06:59:59,0800-2000,,OPTUMServe,Jessica Hodgeson,,OPTUMServe,https://lhi.care/covidtesting,"Tues, Wed, Thurs, Fri, Sat",(888) 634-1123,,84,78
-13598651.7669,4534834.047,248,{9112F071-3364-4160-9900-FDD943B049CA},2020/07/10 16:24:52,Alameda,15310 Wicks Blvd,San Leandro,94578,2020/06/11 05:00:00,0800 - 1600,,OPTUMServe,Bridget Satchwell,,OPTUMServe,https://lhi.care/covidtesting,"Tues, Wed, Thurs, Fri, Sat",(888) 634-1123,,88,176
-12855864.1608,3851897.6632,249,{8732508A-14F1-4324-BA5F-8269BF98F2A6},2020/07/13 13:44:11,Imperial,707 Dool Street,Calexico,92231,2020/07/15 05:00:00,0700-1900,,OPTUMServe,Jeff Lamoure,,OPTUMServe,https://lhi.care/covidtesting,"Mon, Tues, Wed, Thurs, Fir",(888) 634-1123,,,
-12865194.3075,3874876.7127,250,{099EBBCF-2DCC-4B25-A239-0E3C6F0EDA54},2020/07/10 16:24:52,Imperial,247 S Imperial Ave,Imperial,92251,2020/06/03 05:00:00,0700-1900,,OPTUMServe,Jeff Lamoure,,OPTUMServe,https://lhi.care/covidtesting,"Mon, Tues, Wed, Thurs, Fri",(888) 634-1123,,95,104
-13098443.0611,3965040.6368,251,{CD5E1663-18E4-4505-86C2-09C1D5F07C8D},2020/07/10 16:24:53,Orange,30230 Rancho Viejo Road,San Jaun Capistrano,92675,2020/05/13 05:00:00,0800-2000,,OPTUMServe,Jessica Hodgeson,,OPTUMServe,https://lhi.care/covidtesting,"Tues, Wed, Thurs, Fri, Sat.",(888) 634-1123,,76,98
-13134350.447,4011347.23,252,{AF324A12-B27D-4D4C-9994-374008ADF688},2020/07/10 16:24:53,Orange,8352 Commonwealth Ave.,Buena Park,90621,2020/05/07 05:00:00,0800-2000,,OPTUMServe,Jessica Hodgeson,,OPTUMServe,https://lhi.care/covidtesting,"Tues, Wed, Thurs, Fri, Sat.",(888) 634-1123,,87,78
-13494830.4806,4691480.4533,253,{B84EFBE0-515C-47A0-840B-86823DE44899},2020/07/10 16:24:53,Placer,4890 Granite Dr,Rocklin,95677,2020/06/08 05:00:00,0700-1900,,OPTUMServe,David Attaway,,OPTUMServe,https://lhi.care/covidtesting,"Mon, Tues, Wed, Thurs, Fri",(888) 634-1123,,92,164
-13029294.7277,3836450.3266,255,{B6A863CB-4C7A-4C44-B586-BA91A9365CAE},2020/07/10 16:24:54,San Diego,212 W Park Ave,San Ysidro,92173,2020/06/02 05:00:00,0700-1900,,OPTUMServe,Chuck Leichliter,,OPTUMServe,https://lhi.care/covidtesting,"Tues, Wed, Thurs, Fri, Sat",(888) 634-1123,,86,92
-13430950.6579,4203235.9525,256,{ABB3B745-22AA-4BA6-A996-5F23C0C2F1E2},2020/07/10 16:24:55,San Luis Obispo,801 Grand Ave,San Luis Obispo,93401,2020/06/08 05:00:00,0700-1900,,OPTUMServe,Anita Konopa,,OPTUMServe,https://lhi.care/covidtesting,"Mon, Tues, Wed, Thurs, Fri",(888) 634-1123,,97,94
-13607630.3758,4590999.0987,258,{E28CC2DA-CAE1-4B06-B84D-DBDE1713BD52},2020/07/10 16:24:56,Solano,545 Magazine Street,Vallejo,94590,2020/06/08 05:00:00,0700-1900,,OPTUMServe,Denise Kirnig,,OPTUMServe,https://lhi.care/covidtesting,"Mon, Tues, Wed, Thurs, Fri",(888) 634-1123,,80,159
-13471006.6492,4526711.2434,260,{3C7D00DD-7AEC-4592-AF35-E023CAED57C5},2020/07/10 16:24:57,Stanislaus,420 Chicago Ave,Modesto,95351,2020/06/08 05:00:00,0700-1900,,OPTUMServe,Bret Silveira,,OPTUMServe,https://lhi.care/covidtesting,"Mon, Tues, Wed, Thurs, Fri",(888) 634-1123,,85,162
-13628994.9823,4503805.7779,264,{6A5C47F5-5E64-4F63-B678-D6DF6C6178E9},2020/07/10 16:24:58,San Mateo,600 Church St,Half Moon Bay,94019,2020/06/03 05:00:00,9AM - 3PM,Alternates every two weeks with Redwood City,Verily,Peter Shih,pshih@smcgov.org,,https://www.projectbaseline.com/study/covid-19/,"Wed, Thurs",,,,
-13430613.0288,4927538.4835,268,{CE9AACB8-C0D4-4CBF-8494-1AA59BD9738A},2020/07/10 16:25:00,Lassen,1445 Paul Bunyan Rd,Susanville,96130,2020/05/21 05:00:00,10AM - 3PM,,Verily,Jim Uruburu,jim.uruburu@co.lassen.ca.us,"Susanville, CA - Department of Public Health - Rotation",https://www.projectbaseline.com/study/covid-19/,"Mon, Fri",,,,
-13373233.6673,4886557.6373,269,{1859E54D-DB19-4FC8-8840-C7E389F7CACC},2020/07/10 16:25:01,Lassen,100 David S Hall Ave,Herlong,96113,2020/06/02 05:00:00,3PM - 7:30PM,Pop up,Verily,Jim Uruburu,jim.uruburu@co.lassen.ca.us,"Herlong, CA - Rotation",https://www.projectbaseline.com/study/covid-19/,Tues,,,,
-13370044.0563,4869701.4143,270,{A45311D2-4342-4275-8DCC-4ECD8750C590},2020/07/10 16:25:01,Lassen,434-685 Doyle Loop,Doyle,96109,2020/06/02 05:00:00,11AM - 1PM,Pop up,Verily,Jim Uruburu,jim.uruburu@co.lassen.ca.us,"Doyle, CA - Rotation",https://www.projectbaseline.com/study/covid-19/,Tues,,,,
-13483853.7594,5031812.4426,271,{817A2E02-7CC2-4D7E-BB23-D774FA87D008},2020/07/10 16:25:02,Lassen,554-850 Medical Center Dr,Bieber,96009,2020/06/03 05:00:00,10AM - 3PM,Pop up,Verily,Jim Uruburu,jim.uruburu@co.lassen.ca.us,"Bieber, CA",https://www.projectbaseline.com/study/covid-19/,Wed,,,,
-13469871.9979,4909680.6985,272,{A5BBA645-5BD7-4451-ADCF-2321FDE2B122},2020/07/10 16:25:02,Lassen,125 Birch St,Westwood,96137,2020/06/04 05:00:00,10AM - 1PM,Pop up,Verily,Jim Uruburu,jim.uruburu@co.lassen.ca.us,"Westwood, CA",https://www.projectbaseline.com/study/covid-19/,Thurs,,,,
-13826914.5579,5126202.0586,273,{CCD60D25-8CC3-4A06-A3F1-3493E358F612},2020/07/10 16:25:02,Del Norte,1301 El Dorado St,Crescent City,95531,2020/05/29 05:00:00,9AM - 2PM,Mobile Unit A,Verily,Kymmie Scott,kymmie.scott@co.del-norte.ca.us,"Crescent City, CA - Rotation",https://www.projectbaseline.com/study/covid-19/,Mon - Wed,,,,
-13385642.6197,4819466.0276,274,{2DBBF7A6-40FB-4E1D-B443-08AE0821F8D5},2020/07/10 16:25:03,Sierra,700 4th St,Loyalton,96118,2020/06/02 05:00:00,10AM - 2PM,Mobile Unit D,Verily,LeTina Vanetti,lvanetti@sierracounty.ca.gov,"Loyalton, CA - Rotation",https://www.projectbaseline.com/study/covid-19/,Tues,,,,
-13450401.3747,4802332.9109,276,{C6421C5E-333A-4914-B68D-98C18EDECA8E},2020/07/10 16:25:03,Sierra,130 School St,Downieville,95936,2020/06/03 05:00:00,10AM - 2PM,Mobile Unit D,Verily,LeTina Vanetti,lvanetti@sierracounty.ca.gov,"Downieville, CA",https://www.projectbaseline.com/study/covid-19/,Wed,,,,
-13683930.216,4969759.398,277,{0D77A403-D3FF-4C03-91C6-B8FF5D641A65},2020/07/10 16:25:04,Tirinity,101 Arbuckle Ct,Weaverville,96093,2020/06/05 05:00:00,10AM - 4PM,Mobile Unit A,Verily,Amanda Braxton,abraxton@trinitycounty.org,"Weaverville, CA",https://www.projectbaseline.com/study/covid-19/,Alternating Fridays beginning (6/5),,,,
-13312612.0633,4544100.3582,278,{3921CE4F-C7FA-4AED-B573-C11FBB1FC790},2020/07/10 16:25:04,Mariposa,9034 Lost Arrow Rd,Yosemite Valley,95389,2020/06/03 05:00:00,10AM - 4PM,Mobile Unit B,Verily,Annie Shih,ashih@mariposahsc.org,"Yosemite Valley, CA",https://www.projectbaseline.com/study/covid-19/,Wed,,,,
-13713569.7778,4945122.3144,280,{B68FDBD0-18F3-4E26-8EA3-7EAC440E3A72},2020/07/10 16:25:06,Trinity,6000 State Hwy 3,Hayfork,96041,2020/06/12 05:00:00,10AM - 4PM,Mobile Unit A,Verily,Amanda Braxton,abraxton@trinitycounty.org,"Hayfork, CA",https://www.projectbaseline.com/study/covid-19/,Alternating Fridays beginning (6/12),,,,
-13611463.5473,4559197.6421,281,{C34B0DA3-868C-43D6-8CF8-A89067F71490},2020/07/10 16:25:06,Alameda,1730 Oregon St,Berkeley,94703,2020/06/08 05:00:00,0700 - 1900,,OPTUMServe,Dinsi Bryant,,OPTUMServe,https://lhi.care/covidtesting,"Mon, Tues, Wed, Thurs, Fri",(888) 634-1123,,98,163
-13380908.1244,4768500.9053,282,{90F625B9-3CA3-4AC1-9135-BE00C7B42C4E},2020/07/10 16:25:07,Placer,10990 Donner Pass Rd,Truckee,96161,2020/06/08 05:00:00,0700 - 1900,,OPTUMServe,Michael Romero,,OPTUMServe,https://lhi.care/covidtesting,"Mon, Tues, Wed, Thurs, Fri",(888) 634-1123,,102,154
-13061257.1908,4009577.7691,285,{4CA46D94-2C93-43CA-AC8A-A7C3803F7B4C},2020/07/10 16:25:09,Riverside,18150 Wood Rd,Perris,92570,2020/06/09 05:00:00,0700 - 1900,,OPTUMServe,Peter Davenport,,OPTUMServe,https://lhi.care/covidtesting,"Mon, Tues, Wed, Thurs, Fri",(888) 634-1123,,86,75
-13101384.7758,4030624.1441,286,{E3C97CDA-6C98-4A91-8900-3F0DCD8A688D},2020/07/10 16:25:09,San Bernardino,5201 D Street,Chino,91710,2020/06/09 05:00:00,0700 - 1900,,OPTUMServe,Andi Cannon,,OPTUMServe,https://lhi.care/covidtesting,"Mon, Tues, Wed, Thurs, Fri",(888) 634-1123,,,
-13528887.1495,4664795.9371,287,{C929B655-1A06-4AFA-85DD-59F78993ED04},2020/07/10 16:25:09,Yolo,1125 Riverbank Road,West Sacramento,95605,2020/06/02 05:00:00,0700 - 1900,,OPTUMServe,Dana Carey,,OPTUMServe,https://lhi.care/covidtesting,"Tues, Wed, Thurs, Fri, Sat",(888) 634-1123,,89,163
-13447538.1841,4632280.4125,288,{4D4FCECD-6BAC-490B-B4B9-84B7AC33D8E7},2020/07/10 16:25:10,Amador,11361 Prospect Dr,Jackson,95642,2020/06/04 05:00:00,10AM - 4PM,,Verily,Bob Hartmann,HartmaR@sutterhealth.org,"Jackson, CA",https://www.projectbaseline.com/study/covid-19/,"(Mon, Tues: 10-2 only); Thurs, Fri",,,,
-13272523.2603,4615749.273,289,{12FD3F6A-B37E-4E7D-9599-1F5726C49A8E},2020/07/10 16:25:10,Mono,73 N School St,Bridgeport,93517,2020/06/05 05:00:00,10AM - 4PM,,Verily,"Tom Boo, MD, FAAFP, DTM&H, Public Health Officer, Mono County Health Dept",tboo@mono.ca.gov,,https://www.projectbaseline.com/study/covid-19/,Fri,,,,
-13365693.1844,4676661.9963,292,{26505F4F-2C94-4F11-AC60-7241C69DE6D0},2020/07/10 16:25:11,Alpine,1501 Kirkwood Meadows Dr,Kirkwood,95646,2020/06/11 05:00:00,10AM - 2PM,,Verily,Richard O. Johnson,drrickjohn@gmail.com,"Kirkwood, CA",https://www.projectbaseline.com/study/covid-19/,Thurs. Alternates weeks with Markleeville,,,,
-13284692.1928,4244934.7695,293,{2DFF1BD4-953B-4DF9-A8F7-CF170359DBAB},2020/07/10 16:28:59,Kern,1102 7th street,Wasco,93280,2020/06/16 05:00:00,0700 - 1900,,OPTUMServe,Jake Cagle,,OPTUMServe,https://lhi.care/covidtesting,"Tues, Wed, Thurs, Fri, Sat",(888) 634-1123,,202,37
-13588681.8223,4567142.7929,294,{55BFF2FF-A5A7-484E-8FEE-8FE57E3F5096},2020/07/10 16:25:12,Contra Costa,2355 San Juan Ave,Walnut Creek,94595,2020/06/22 05:00:00,0700 - 1900,,OPTUMServe,Joshua Sullivan,,OPTUMServe,https://lhi.care/covidtesting,"Mon, Tues, Wed, Thurs, Fri.",(888) 634-1123,,87,173
-13154545.0153,4145850.0215,295,{B8A3E556-46C8-4783-AAFB-2D955CF37888},2020/07/10 16:25:12,Kern,3200 Glendower Street,Rosamond,93560,2020/06/16 05:00:00,0700 - 1900,,OPTUMServe,Jake Cagle,,OPTUMServe,https://lhi.care/covidtesting,"Tues, Wed, Thurs, Fri, Sat.",(888) 634-1123,,94,80
-12934097.3813,3985233.9235,296,{ADB90218-8112-426D-890A-4BC3293D4009},2020/07/10 16:25:13,Riverside,51251 Douma Street,Coachella,92236,2020/06/23 05:00:00,0700 - 1900,,OPTUMServe,Mallory Sutterfield,,OPTUMServe,https://lhi.care/covidtesting,"Tues, Wed, Thurs, Fri, Sat",(888) 634-1123,,83,99
-13053456.0418,4018337.4744,297,{74F9D82E-F931-4E04-8545-CD126A9489EC},2020/07/10 16:25:13,Riverside,13671 Frederick Street,Moreno Valley,92553,2020/06/24 05:00:00,0700 - 1900,,OPTUMServe,Julia Waltirp,,OPTUMServe,https://lhi.care/covidtesting,"Mon, Tues, Wed, Thurs, Fri.",(888) 634-1123,,79,100
-13033874.4282,3911500.0779,298,{7A91B33C-149C-42FD-B89D-C1C48CAFB6B5},2020/07/10 16:25:14,San Diego,260 North Escondido Blvd,Escondido,92025,2020/06/23 05:00:00,0700 - 1900,,OPTUMServe,Chuck Leichliter,,OPTUMServe,https://lhi.care/covidtesting,"Tues, Wed, Thurs, Fri, Sat.",(888) 634-1123,,97,85
-13337907.0419,4688704.6981,300,{1B222A92-741C-4584-895A-2C71B50688FA},2020/07/10 16:25:15,Alpine,75 Diamond Valley Road,Markleeville,96120,2020/06/04 05:00:00,10AM - 4PM,Mobile Unit D,Verily,"Richard O. Johnson, M.D., MPH, FAAP, Health Officer",drrickjohn@gmail.com,"Woodfords, CA",https://www.projectbaseline.com/study/covid-19/,"Alternates weeks with Kirkwood; Thru",,,,
-13762956.3444,5004281.1324,301,{9EE38FB4-DBC9-4A0F-89B7-8875C519B706},2020/07/10 16:25:15,Humboldt,2405 Trinity River Hwy,Willow Creek,95573,2020/06/11 05:00:00,10AM - 4PM,,Verily,"Amanda Braxton, MHA Emergency Preparedness Coordinator",abraxton@trinitycounty.org,"Willow Creek, CA",https://www.projectbaseline.com/study/covid-19/,Thurs.,,,,
-13156515.1664,4025750.7406,303,{4CEBE55E-9109-423B-9052-4CF7EADBA271},2020/07/10 16:25:16,Los Angeles,6410 Atlantic Ave,Bell,90201,2020/06/22 05:00:00,8AM - 2PM,,Verily,,,"Bell, CA",https://www.projectbaseline.com/study/covid-19/,"Mon, Thurs, Fri.",,,,
-13180953.513,4489590.5866,304,{34957E67-7B35-4B24-8358-948D075FAC61},2020/07/10 16:25:16,Inyo,900 W Line St,Bishop,93514,,8AM - 12PM,Mobile unit C,Verily,,,"Bishop, CA",https://www.projectbaseline.com/study/covid-19/,"Mon, Wed, Thurs.",,,,
-13191506.1327,4052642.0673,305,{52EB12CA-250B-4FE2-A486-38309EA86917},2020/07/10 16:25:17,Los Angeles,5903 Balboa Blvd,Los Angeles,91316,,"8AM - 2PM (Thurs, Fri) 8AM - 1PM (Sat)",,Verily,,,"Van Nuys (Balboa Park), CA",https://www.projectbaseline.com/study/covid-19/,"Thurs, Fri, Sat.",,,,
-13610124.7362,4550819.7357,310,{1CD60BA7-5A40-4E82-BAEC-8E5C3FE2E8DB},2020/07/10 16:25:20,Alameda,10 10th St,Oakland,94607,,10AM - 4PM,,Verily,,,"Oakland (Henry J Kaiser), CA",https://www.projectbaseline.com/study/covid-19/,"Thurs, Fri.",,,,
-13337267.9729,4400328.3836,314,{03757B7D-DCA2-4772-834B-274C34E3F694},2020/07/10 16:25:21,Fresno,142 E California Ave,Fresno,93706,2020/06/30 05:00:00,0700 - 1900,,OPTUMServe,Anton Kremer,,OPTUMServe,https://lhi.care/covidtesting,"Tues, Wed, Thurs, Fri, Sat.",(888) 634-1123,,66,36
-12862106.3206,3891888.8893,315,{2BDCF26F-9D5E-4959-8E0B-3CBF83D7F6C9},2020/07/10 18:12:36,Imperial,575 J Street,Brawley,92227,2020/06/29 05:00:00,0700 - 1900,,OPTUMServe,Jeff Lamoure,,OPTUMServe,https://lhi.care/covidtesting,"Mon, Tues, Wed, Thurs, Fri.",(888) 634-1123,,73,91
-13069480.5883,4038263.7756,316,{1A165AEE-9B89-4DB9-A3A3-EF6BE573BE8E},2020/07/10 16:25:22,San Bernardino,18313 Valley Blvd,Bloomington,92316,2020/06/29 05:00:00,0700 - 1900,,OPTUMServe,Shanna Jensen,,OPTUMServe,https://lhi.care/covidtesting,"Mon, Tues, Wed, Thurs, Fri",(888) 634-1123,,78,82
-13045543.6722,4095636.8425,317,{851F33D4-C0EC-4568-BE92-250C92AAE704},2020/07/10 16:25:23,San Bernardino,13467 Navajo Road,Apple Valley,92308,2020/06/29 05:00:00,0700 - 1900,,OPTUMServe,Shanna Jensen,,OPTUMServe,https://lhi.care/covidtesting,"Mon, Tues, Wed, Thurs, Fri.",(888) 634-1123,,71,85
-13379116.4411,4111109.9495,318,{E3537B7B-1EDF-4BE8-B720-AA7EDEDB8C14},2020/07/10 16:25:23,Santa Barbara,240 CA-246,Buellton,93427,2020/06/26 05:00:00,0700 - 1900,,OPTUMServe,Nick Clay,,OPTUMServe,https://lhi.care/covidtesting,"Fri, Sat, Sun, Mon, Tues.",(888) 634-1123,,84,86
-13659170.0757,4640736.7182,319,{F9AD81B6-C1B9-4414-B013-2E2FF3372012},2020/07/10 18:14:15,Sonoma,1350 Bennett Valley Road,Santa Rosa,95404,2020/07/03 05:00:00,0700 - 1900,,OPTUMServe,Lisa Valente,,OPTUMServe,https://lhi.care/covidtesting,"Mon, Tues, Wed, Thurs, Fri.",(888) 634-1123,,11,165
-13483057.5671,4504507.835,320,{D9E5F642-6C40-4539-8EC4-676C7DFEDC25},2020/07/10 18:16:15,Stanislaus,275 N Orange St,Patterson,95363,2020/06/26 05:00:00,0700 - 1900,,OPTUMServe,Ken Irwin,,OPTUMServe,https://lhi.care/covidtesting,"Mon, Tues, Wed, Thurs, Fri",(888) 634-1123,,88,162
-13535022.3462,4741342.1704,321,{6F5A483B-96B3-4A05-B5ED-7EBFCCECEC37},2020/07/10 16:25:24,Yuba,303 Second St,Marysville,95901,2020/07/02 05:00:00,0700 - 1900,,OPTUMServe,Youa Hill,,OPTUMServe,https://lhi.care/covidtesting,"Tues, Wed, Thurs, Fri, Sat",(888) 634-1123,,89,173
-13157348.2175,4145491.9461,322,{BF7FF6E5-02FE-49DD-956D-78055EC55A7B},2020/07/10 16:25:25,Kern,3611 Rosamond,Rosamond,93560,2020/07/07 05:00:00,0700 - 1900,,OPTUMServe,Jake Cagle,,OPTUMServe,https://lhi.care/covidtesting,"Tues, Wed, Thurs, Fri, Sat",(888) 634-1123,,,
-13154726.8623,4037233.4884,323,{167B93ED-EFF8-4E31-A0C3-4632A1340301},2020/07/10 16:25:25,Los Angeles,5151 State University Dr,Los Angeles,90032,2020/07/06 05:00:00,0700- 1900,,OPTUMServe,Lisa Chavez,,OPTUMServe,https://lhi.care/covidtesting,"Mon, Tues, Wed, Thurs, Fri.",(888) 634-1123,,,
-13035604.3257,3851984.8137,324,{0E6C53DB-EB56-41F1-B00A-AFEE46A4F7F1},2020/07/10 16:25:26,San Diego,1221 D Avenue,National City,91950,2020/07/07 05:00:00,0700 - 1900,,OPTUMServe,Angie Durdiev,,OPTUMServe,https://lhi.care/covidtesting,"Tues, Wed, Thurs, Fri, Sat.",(888) 634-1123,,87,70
-13587608.1173,4614689.0586,325,{15F748EA-00DC-43F6-93DD-818D4CFC556D},2020/07/10 16:25:26,Solano,1741 W. Texas Street,Fairfield,94533,2020/06/29 05:00:00,0700 - 1900,,OPTUMServe,Denise Kirnig,,OPTUMServe,https://lhi.care/covidtesting,"Mon, Tues, Wed, Thurs, Fri",(888) 634-1123,,83,101
